STARLINK-30237          
1 57437U 23105H   25274.11005043 -.00001994  00000+0 -13248-3 0  9996
2 57437  43.0044  48.9327 0002256 261.1740  98.8847 15.02554044121550
STARLINK-30158          
1 57438U 23105J   25273.64804829 -.00002742  00000+0 -18802-3 0  9996
2 57438  43.0043  51.4872 0001531 271.0287  89.0380 15.02532576121487
STARLINK-30159          
1 57440U 23105L   25274.10673716 -.00001019  00000+0 -60388-4 0  9993
2 57440  43.0021  48.9096 0001375 276.6581  83.4105 15.02529857121390
STARLINK-30160          
1 57441U 23105M   25273.77101093  .00000011  00000+0  15889-4 0  9995
2 57441  43.0028  50.6845 0001429 263.3184  96.7496 15.02550895121343
STARLINK-30146          
1 57442U 23105N   25273.36882241 -.00000545  00000+0 -25288-4 0  9990
2 57442  43.0036  52.8270 0001684 255.5313 104.5343 15.02536592121504
STARLINK-30197          
1 57443U 23105P   25274.09674712 -.00001237  00000+0 -76546-4 0  9996
2 57443  43.0009  48.8314 0001024 266.6637  93.4088 15.02535144121558
STARLINK-30181          
1 57444U 23105Q   25273.75103939  .00000722  00000+0  68514-4 0  9999
2 57444  43.0035  50.5383 0001394 262.3323  97.7361 15.02535468121560
STARLINK-30215          
1 57445U 23105R   25274.08788848 -.00002972  00000+0 -20515-3 0  9994
2 57445  43.0037  48.7669 0000994 278.8906  81.1823 15.02512908121398
STARLINK-30162          
1 57446U 23105S   25273.61500679 -.00028026  00000+0 -20592-2 0  9999
2 57446  43.0042  38.5013 0002009 264.2641  95.7972 15.02693515121636
STARLINK-30178          
1 57447U 23105T   25274.08675611  .00000198  00000+0  29714-4 0  9996
2 57447  43.0040  48.7581 0001340 272.8970  87.1719 15.02538264121559
STARLINK-30196          
1 57448U 23105U   25274.07678876 -.00001772  00000+0 -11616-3 0  9994
2 57448  43.0028  48.6810 0001565 268.0902  91.9761 15.02519795121391
STARLINK-30225          
1 57449U 23105V   25274.07342993  .00001057  00000+0  93300-4 0  9998
2 57449  43.0069  48.6578 0001789 277.7906  82.2733 15.02545733121615
STARLINK-30217          
1 57450U 23105W   25274.32965690  .00004633  00000+0  35777-3 0  9999
2 57450  43.0054  34.4545 0001576 264.8521  95.2141 15.02538730121742
STARLINK-30216          
1 57451U 23105X   25273.73771355  .00001974  00000+0  16114-3 0  9996
2 57451  43.0020  50.4533 0000651 274.4259  85.6509 15.02545575121341
STARLINK-30165          
1 57457U 23107A   25274.03199772 -.00000162  00000+0  30786-5 0  9997
2 57457  43.0028 126.7699 0001339 269.6942  90.3747 15.02530433121089
STARLINK-30140          
1 57458U 23107B   25273.89570714  .00001593  00000+0  13292-3 0  9999
2 57458  43.0013 127.4658 0001003 258.7984 101.2745 15.02540683121077
