[{"OBJECT_NAME":"STARLINK-30237","OBJECT_ID":"2023-105H","EPOCH":"2025-10-01T02:38:28.357152","MEAN_MOTION":15.02554044,"ECCENTRICITY":0.0002256,"INCLINATION":43.0044,"RA_OF_ASC_NODE":48.9327,"ARG_OF_PERICENTER":261.174,"MEAN_ANOMALY":98.8847,"EPHEMERIS_TYPE":0,"CLASSIFICATION_TYPE":"U","NORAD_CAT_ID":57437,"ELEMENT_SET_NO":999,"REV_AT_EPOCH":12155,"BSTAR":-0.00013248426,"MEAN_MOTION_DOT":-1.994e-5,"MEAN_MOTION_DDOT":0},{"OBJECT_NAME":"STARLINK-30158","OBJECT_ID":"2023-105J","EPOCH":"2025-09-30T15:33:11.372256","MEAN_MOTION":15.02532576,"ECCENTRICITY":0.0001531,"INCLINATION":43.0043,"RA_OF_ASC_NODE":51.4872,"ARG_OF_PERICENTER":271.0287,"MEAN_ANOMALY":89.038,"EPHEMERIS_TYPE":0,"CLASSIFICATION_TYPE":"U","NORAD_CAT_ID":57438,"ELEMENT_SET_NO":999,"REV_AT_EPOCH":12148,"BSTAR":-0.00018801973,"MEAN_MOTION_DOT":-2.742e-5,"MEAN_MOTION_DDOT":0},{"OBJECT_NAME":"STARLINK-30159","OBJECT_ID":"2023-105L","EPOCH":"2025-10-01T02:33:42.090624","MEAN_MOTION":15.02529857,"ECCENTRICITY":0.0001375,"INCLINATION":43.0021,"RA_OF_ASC_NODE":48.9096,"ARG_OF_PERICENTER":276.6581,"MEAN_ANOMALY":83.4105,"EPHEMERIS_TYPE":0,"CLASSIFICATION_TYPE":"U","NORAD_CAT_ID":57440,"ELEMENT_SET_NO":999,"REV_AT_EPOCH":12139,"BSTAR":-6.0387861e-5,"MEAN_MOTION_DOT":-1.019e-5,"MEAN_MOTION_DDOT":0},{"OBJECT_NAME":"STARLINK-30160","OBJECT_ID":"2023-105M","EPOCH":"2025-09-30T18:30:15.344352","MEAN_MOTION":15.02550895,"ECCENTRICITY":0.00014297,"INCLINATION":43.0028,"RA_OF_ASC_NODE":50.6845,"ARG_OF_PERICENTER":263.3184,"MEAN_ANOMALY":96.7496,"EPHEMERIS_TYPE":0,"CLASSIFICATION_TYPE":"U","NORAD_CAT_ID":57441,"ELEMENT_SET_NO":999,"REV_AT_EPOCH":12134,"BSTAR":1.5888607e-5,"MEAN_MOTION_DOT":1.1e-7,"MEAN_MOTION_DDOT":0},{"OBJECT_NAME":"STARLINK-30146","OBJECT_ID":"2023-105N","EPOCH":"2025-09-30T08:51:06.256224","MEAN_MOTION":15.02536592,"ECCENTRICITY":0.00016844,"INCLINATION":43.0036,"RA_OF_ASC_NODE":52.827,"ARG_OF_PERICENTER":255.5313,"MEAN_ANOMALY":104.5343,"EPHEMERIS_TYPE":0,"CLASSIFICATION_TYPE":"U","NORAD_CAT_ID":57442,"ELEMENT_SET_NO":999,"REV_AT_EPOCH":12150,"BSTAR":-2.5288151e-5,"MEAN_MOTION_DOT":-5.45e-6,"MEAN_MOTION_DDOT":0},{"OBJECT_NAME":"STARLINK-30197","OBJECT_ID":"2023-105P","EPOCH":"2025-10-01T02:19:18.951168","MEAN_MOTION":15.02535144,"ECCENTRICITY":0.00010246,"INCLINATION":43.0009,"RA_OF_ASC_NODE":48.8314,"ARG_OF_PERICENTER":266.6637,"MEAN_ANOMALY":93.4088,"EPHEMERIS_TYPE":0,"CLASSIFICATION_TYPE":"U","NORAD_CAT_ID":57443,"ELEMENT_SET_NO":999,"REV_AT_EPOCH":12155,"BSTAR":-7.6546245e-5,"MEAN_MOTION_DOT":-1.237e-5,"MEAN_MOTION_DDOT":0},{"OBJECT_NAME":"STARLINK-30181","OBJECT_ID":"2023-105Q","EPOCH":"2025-09-30T18:01:29.803296","MEAN_MOTION":15.02535468,"ECCENTRICITY":0.00013944,"INCLINATION":43.0035,"RA_OF_ASC_NODE":50.5383,"ARG_OF_PERICENTER":262.3323,"MEAN_ANOMALY":97.7361,"EPHEMERIS_TYPE":0,"CLASSIFICATION_TYPE":"U","NORAD_CAT_ID":57444,"ELEMENT_SET_NO":999,"REV_AT_EPOCH":12156,"BSTAR":6.8514231e-5,"MEAN_MOTION_DOT":7.22e-6,"MEAN_MOTION_DDOT":0},{"OBJECT_NAME":"STARLINK-30215","OBJECT_ID":"2023-105R","EPOCH":"2025-10-01T02:06:33.564672","MEAN_MOTION":15.02512908,"ECCENTRICITY":9.945e-5,"INCLINATION":43.0037,"RA_OF_ASC_NODE":48.7669,"ARG_OF_PERICENTER":278.8906,"MEAN_ANOMALY":81.1823,"EPHEMERIS_TYPE":0,"CLASSIFICATION_TYPE":"U","NORAD_CAT_ID":57445,"ELEMENT_SET_NO":999,"REV_AT_EPOCH":12139,"BSTAR":-0.00020514833,"MEAN_MOTION_DOT":-2.972e-5,"MEAN_MOTION_DDOT":0},{"OBJECT_NAME":"STARLINK-30162","OBJECT_ID":"2023-105S","EPOCH":"2025-09-30T14:45:36.586656","MEAN_MOTION":15.02693515,"ECCENTRICITY":0.0002009,"INCLINATION":43.0042,"RA_OF_ASC_NODE":38.5013,"ARG_OF_PERICENTER":264.2641,"MEAN_ANOMALY":95.7972,"EPHEMERIS_TYPE":0,"CLASSIFICATION_TYPE":"U","NORAD_CAT_ID":57446,"ELEMENT_SET_NO":999,"REV_AT_EPOCH":12163,"BSTAR":-0.0020592,"MEAN_MOTION_DOT":-0.00028026,"MEAN_MOTION_DDOT":0},{"OBJECT_NAME":"STARLINK-30178","OBJECT_ID":"2023-105T","EPOCH":"2025-10-01T02:04:55.727904","MEAN_MOTION":15.02538264,"ECCENTRICITY":0.00013405,"INCLINATION":43.004,"RA_OF_ASC_NODE":48.7581,"ARG_OF_PERICENTER":272.897,"MEAN_ANOMALY":87.1719,"EPHEMERIS_TYPE":0,"CLASSIFICATION_TYPE":"U","NORAD_CAT_ID":57447,"ELEMENT_SET_NO":999,"REV_AT_EPOCH":12155,"BSTAR":2.971441e-5,"MEAN_MOTION_DOT":1.98e-6,"MEAN_MOTION_DDOT":0},{"OBJECT_NAME":"STARLINK-30196","OBJECT_ID":"2023-105U","EPOCH":"2025-10-01T01:50:34.548864","MEAN_MOTION":15.02519795,"ECCENTRICITY":0.00015651,"INCLINATION":43.0028,"RA_OF_ASC_NODE":48.681,"ARG_OF_PERICENTER":268.0902,"MEAN_ANOMALY":91.9761,"EPHEMERIS_TYPE":0,"CLASSIFICATION_TYPE":"U","NORAD_CAT_ID":57448,"ELEMENT_SET_NO":999,"REV_AT_EPOCH":12139,"BSTAR":-0.00011616167,"MEAN_MOTION_DOT":-1.772e-5,"MEAN_MOTION_DDOT":0},{"OBJECT_NAME":"STARLINK-30225","OBJECT_ID":"2023-105V","EPOCH":"2025-10-01T01:45:44.345952","MEAN_MOTION":15.02545733,"ECCENTRICITY":0.00017899,"INCLINATION":43.0069,"RA_OF_ASC_NODE":48.6578,"ARG_OF_PERICENTER":277.7906,"MEAN_ANOMALY":82.2733,"EPHEMERIS_TYPE":0,"CLASSIFICATION_TYPE":"U","NORAD_CAT_ID":57449,"ELEMENT_SET_NO":999,"REV_AT_EPOCH":12161,"BSTAR":9.3299736e-5,"MEAN_MOTION_DOT":1.057e-5,"MEAN_MOTION_DDOT":0},{"OBJECT_NAME":"STARLINK-30217","OBJECT_ID":"2023-105W","EPOCH":"2025-10-01T07:54:42.356160","MEAN_MOTION":15.0253873,"ECCENTRICITY":0.0001576,"INCLINATION":43.0054,"RA_OF_ASC_NODE":34.4545,"ARG_OF_PERICENTER":264.8521,"MEAN_ANOMALY":95.2141,"EPHEMERIS_TYPE":0,"CLASSIFICATION_TYPE":"U","NORAD_CAT_ID":57450,"ELEMENT_SET_NO":999,"REV_AT_EPOCH":12174,"BSTAR":0.00035776605,"MEAN_MOTION_DOT":4.633e-5,"MEAN_MOTION_DDOT":0},{"OBJECT_NAME":"STARLINK-30216","OBJECT_ID":"2023-105X","EPOCH":"2025-09-30T17:42:18.450720","MEAN_MOTION":15.02545575,"ECCENTRICITY":6.518e-5,"INCLINATION":43.002,"RA_OF_ASC_NODE":50.4533,"ARG_OF_PERICENTER":274.4259,"MEAN_ANOMALY":85.6509,"EPHEMERIS_TYPE":0,"CLASSIFICATION_TYPE":"U","NORAD_CAT_ID":57451,"ELEMENT_SET_NO":999,"REV_AT_EPOCH":12134,"BSTAR":0.00016113988,"MEAN_MOTION_DOT":1.974e-5,"MEAN_MOTION_DDOT":0},{"OBJECT_NAME":"STARLINK-30165","OBJECT_ID":"2023-107A","EPOCH":"2025-10-01T00:46:04.603008","MEAN_MOTION":15.02530433,"ECCENTRICITY":0.00013392,"INCLINATION":43.0028,"RA_OF_ASC_NODE":126.7699,"ARG_OF_PERICENTER":269.6942,"MEAN_ANOMALY":90.3747,"EPHEMERIS_TYPE":0,"CLASSIFICATION_TYPE":"U","NORAD_CAT_ID":57457,"ELEMENT_SET_NO":999,"REV_AT_EPOCH":12108,"BSTAR":3.078579e-6,"MEAN_MOTION_DOT":-1.62e-6,"MEAN_MOTION_DDOT":0},{"OBJECT_NAME":"STARLINK-30140","OBJECT_ID":"2023-107B","EPOCH":"2025-09-30T21:29:49.096896","MEAN_MOTION":15.02540683,"ECCENTRICITY":0.00010039,"INCLINATION":43.0013,"RA_OF_ASC_NODE":127.4658,"ARG_OF_PERICENTER":258.7984,"MEAN_ANOMALY":101.2745,"EPHEMERIS_TYPE":0,"CLASSIFICATION_TYPE":"U","NORAD_CAT_ID":57458,"ELEMENT_SET_NO":999,"REV_AT_EPOCH":12107,"BSTAR":0.00013292462,"MEAN_MOTION_DOT":1.593e-5,"MEAN_MOTION_DDOT":0}]
